[Satellite]
VERSION=1.1
NAME=SL-8 R/B
NICKNAME=SL-8 R/B
TLE1=1 21876U 92008B   22342.49917995  .00000071  00000+0  57270-4 0  9991
TLE2=2 21876  82.9284  70.4573 0034305 207.9485 163.2683 13.75718190546179
STATUS=0
